{
  "norad_id": 51733,
  "name": "STARLINK-3525",
  "history": [
    {
      "epoch": "2026-03-28T16:22:39.422208Z",
      "apogee_km": 540.6543527618151,
      "perigee_km": 538.9257011563186,
      "latitude_deg": -2.458775752131046e-05,
      "longitude_deg": 162.10768183547782,
      "height_km": 540.8309627248258,
      "semi_major_axis_km": 6917.927026959066,
      "eccentricity": 0.00012494,
      "inclination_deg": 53.2176,
      "raan_deg": 233.8713,
      "arg_perigee_deg": 99.6601,
      "mean_anomaly_deg": 260.4532,
      "mean_motion_rev_day": 15.08824742
    },
    {
      "epoch": "2026-03-28T21:08:50.608320Z",
      "apogee_km": 540.5362695349486,
      "perigee_km": 539.1637409131126,
      "latitude_deg": 7.723873893099346e-06,
      "longitude_deg": 89.4719093279541,
      "height_km": 540.8718351013134,
      "semi_major_axis_km": 6917.98700522403,
      "eccentricity": 9.92e-05,
      "inclination_deg": 53.2175,
      "raan_deg": 232.978,
      "arg_perigee_deg": 100.5463,
      "mean_anomaly_deg": 259.5641,
      "mean_motion_rev_day": 15.0880512
    }
  ]
}